H1 CPF 01  gfz 2021 12 26 13  8602 tandemx   
H2 1003001  6202 36605    2021 12 26 12 59 42 2021 12 31 00 00 42   120 1 1  0 0 0
H9
10 0 59578  48942.000000  0    -596667.364  -3327532.320   5991774.152
10 0 59578  49062.000000  0    -997993.097  -4000859.566   5508250.247
10 0 59578  49182.000000  0   -1393002.243  -4597346.279   4927842.533
10 0 59578  49302.000000  0   -1773351.613  -5106727.103   4260725.964
10 0 59578  49422.000000  0   -2130784.960  -5520400.755   3518613.791
10 0 59578  49542.000000  0   -2457311.064  -5831584.475   2714552.706
10 0 59578  49662.000000  0   -2745379.914  -6035432.222   1862692.201
10 0 59578  49782.000000  0   -2988052.953  -6129115.871    978032.059
10 0 59578  49902.000000  0   -3179163.306  -6111866.592     76152.039
10 0 59578  50022.000000  0   -3313461.779  -5984974.849   -827070.454
10 0 59578  50142.000000  0   -3386744.985  -5751748.708  -1715748.959
10 0 59578  50262.000000  0   -3395962.273  -5417431.057  -2574275.889
10 0 59578  50382.000000  0   -3339298.773  -4989078.380  -3387603.382
10 0 59578  50502.000000  0   -3216232.004  -4475404.401  -4141510.500
10 0 59578  50622.000000  0   -3027561.444  -3886594.321  -4822850.672
10 0 59578  50742.000000  0   -2775411.596  -3234095.021  -5419776.166
10 0 59578  50862.000000  0   -2463209.113  -2530385.870  -5921936.160
10 0 59578  50982.000000  0   -2095634.433  -1788735.864  -6320646.430
10 0 59578  51102.000000  0   -1678548.459  -1022951.516  -6609028.737
10 0 59578  51222.000000  0   -1218897.174   -247120.838  -6782117.525
10 0 59578  51342.000000  0    -724596.757    524641.371  -6836935.144
10 0 59578  51462.000000  0    -204399.404   1278443.636  -6772537.622
10 0 59578  51582.000000  0     332257.591   2000861.208  -6590028.801
10 0 59578  51702.000000  0     875417.679   2679169.321  -6292545.483
10 0 59578  51822.000000  0    1414786.436   3301564.623  -5885210.244
10 0 59578  51942.000000  0    1939922.220   3857369.796  -5375051.448
10 0 59578  52062.000000  0    2440435.121   4337218.296  -4770893.273
10 0 59578  52182.000000  0    2906190.916   4733217.695  -4083214.734
10 0 59578  52302.000000  0    3327515.739   5039087.388  -3323977.603
10 0 59578  52422.000000  0    3695398.007   5250267.054  -2506426.256
10 0 59578  52542.000000  0    4001683.064   5363992.754  -1644860.268
10 0 59578  52662.000000  0    4239254.383   5379338.321   -754384.784
10 0 59578  52782.000000  0    4402197.429   5297221.064    149358.091
10 0 59578  52902.000000  0    4485941.615   5120368.990   1050470.835
10 0 59578  53022.000000  0    4487374.810   4853251.094   1933087.527
10 0 59578  53142.000000  0    4404930.727   4501975.191   2781660.939
10 0 59578  53262.000000  0    4238644.416   4074150.835   3581246.885
10 0 59578  53382.000000  0    3990172.790   3578722.573   4317773.535
10 0 59578  53502.000000  0    3662783.877   3025779.018   4978291.537
10 0 59578  53622.000000  0    3261313.509   2426343.267   5551204.644
10 0 59578  53742.000000  0    2792087.539   1792147.028   6026469.880
10 0 59578  53862.000000  0    2262818.259   1135397.498   6395767.937
10 0 59578  53982.000000  0    1682473.623    468539.389   6652642.505
10 0 59578  54102.000000  0    1061122.238   -195980.450   6792606.844
10 0 59578  54222.000000  0     409757.053   -845944.545   6813218.840
10 0 59578  54342.000000  0    -259899.801  -1469589.900   6714120.813
10 0 59578  54462.000000  0    -935608.087  -2055820.570   6497044.716
10 0 59578  54582.000000  0   -1604832.535  -2594405.107   6165782.206
10 0 59578  54702.000000  0   -2254972.814  -3076154.964   5726122.171
10 0 59578  54822.000000  0   -2873600.405  -3493083.972   5185757.702
10 0 59578  54942.000000  0   -3448700.207  -3838545.548   4554158.323
10 0 59578  55062.000000  0   -3968908.388  -4107342.613   3842407.694
10 0 59578  55182.000000  0   -4423740.687  -4295809.217   3063011.799
10 0 59578  55302.000000  0   -4803807.872  -4401862.476   2229680.742
10 0 59578  55422.000000  0   -5101014.343  -4425023.449   1357085.461
10 0 59578  55542.000000  0   -5308733.012  -4366404.347    460593.911
10 0 59578  55662.000000  0   -5421952.495  -4228663.222   -444006.875
10 0 59578  55782.000000  0   -5437392.689  -4015927.160  -1340797.746
10 0 59578  55902.000000  0   -5353584.958  -3733685.072  -2214017.582
10 0 59578  56022.000000  0   -5170914.090  -3388652.835  -3048347.751
10 0 59578  56142.000000  0   -4891623.107  -2988616.416  -3829184.760
10 0 59578  56262.000000  0   -4519781.811  -2542256.578  -4542896.457
10 0 59578  56382.000000  0   -4061219.617  -2058959.775  -5177057.332
10 0 59578  56502.000000  0   -3523425.112  -1548620.081  -5720658.457
10 0 59578  56622.000000  0   -2915415.632  -1021436.316  -6164289.329
10 0 59578  56742.000000  0   -2247579.980   -487709.189  -6500289.757
10 0 59578  56862.000000  0   -1531496.852     42357.311  -6722870.551
10 0 59578  56982.000000  0    -779733.918    558846.356  -6828201.504
10 0 59578  57102.000000  0      -5631.426   1052308.637  -6814470.111
10 0 59578  57222.000000  0     776928.404   1513930.569  -6681909.002
10 0 59578  57342.000000  0    1553763.765   1935687.461  -6432794.970
10 0 59578  57462.000000  0    2310645.379   2310481.456  -6071414.306
10 0 59578  57582.000000  0    3033553.006   2632260.436  -5603996.839
10 0 59578  57702.000000  0    3708931.866   2896116.155  -5038618.007
10 0 59578  57822.000000  0    4323947.169   3098361.365  -4385072.065
10 0 59578  57942.000000  0    4866732.446   3236583.804  -3654713.092
10 0 59578  58062.000000  0    5326624.589   3309674.579  -2860265.705
10 0 59578  58182.000000  0    5694380.677   3317831.733  -2015609.766
10 0 59578  58302.000000  0    5962372.987   3262537.384  -1135539.474
10 0 59578  58422.000000  0    6124754.387   3146507.383   -235502.171
10 0 59578  58542.000000  0    6177590.960   2973615.457    668677.911
10 0 59578  58662.000000  0    6118957.282   2748792.122   1561085.287
10 0 59578  58782.000000  0    5948991.265   2477903.706   2426001.569
10 0 59578  58902.000000  0    5669908.159   2167612.169   3248191.637
10 0 59578  59022.000000  0    5285971.090   1825219.062   4013180.007
10 0 59578  59142.000000  0    4803420.029   1458498.867   4707510.939
10 0 59578  59262.000000  0    4230362.333   1075525.656   5318985.485
10 0 59578  59382.000000  0    3576629.043    684497.425   5836876.128
10 0 59578  59502.000000  0    2853595.494    293561.869   6252111.451
10 0 59578  59622.000000  0    2073976.432    -89350.923   6557427.450
10 0 59578  59742.000000  0    1251598.890   -456687.100   6747489.089
10 0 59578  59862.000000  0     401153.864   -801416.925   6818979.459
10 0 59578  59982.000000  0    -462067.867  -1117168.365   6770653.064
10 0 59578  60102.000000  0   -1322450.207  -1398344.544   6603355.391
10 0 59578  60222.000000  0   -2164333.074  -1640223.002   6320007.740
10 0 59578  60342.000000  0   -2972295.137  -1839034.235   5925559.240
10 0 59578  60462.000000  0   -3731437.261  -1992020.724   5426908.690
10 0 59578  60582.000000  0   -4427662.625  -2097475.591   4832789.976
10 0 59578  60702.000000  0   -5047944.473  -2154758.607   4153623.740
10 0 59578  60822.000000  0   -5580576.929  -2164288.593   3401337.647
10 0 59578  60942.000000  0   -6015403.572  -2127512.758   2589159.202
10 0 59578  61062.000000  0   -6344020.266  -2046854.918   1731383.796
10 0 59578  61182.000000  0   -6559947.411  -1925642.738    843118.505
10 0 59578  61302.000000  0   -6658762.418  -1768014.452    -59991.690
10 0 59578  61422.000000  0   -6638192.453  -1578808.059   -962047.798
10 0 59578  61542.000000  0   -6498162.980  -1363436.041  -1847186.223
10 0 59578  61662.000000  0   -6240801.613  -1127749.308  -2699865.554
10 0 59578  61782.000000  0   -5870398.164   -877894.160  -3505145.013
10 0 59578  61902.000000  0   -5393322.415   -620164.929  -4248949.055
10 0 59578  62022.000000  0   -4817902.282   -360856.099  -4918312.478
10 0 59578  62142.000000  0   -4154265.854   -106118.318  -5501601.622
10 0 59578  62262.000000  0   -3414151.492    138178.465  -5988708.540
10 0 59578  62382.000000  0   -2610691.456    366572.268  -6371214.419
10 0 59578  62502.000000  0   -1758175.196    574123.670  -6642522.964
10 0 59578  62622.000000  0    -871794.695    756515.879  -6797963.634
10 0 59578  62742.000000  0      32622.832    910140.128  -6834862.440
10 0 59578  62862.000000  0     938889.993   1032163.771  -6752582.216
10 0 59578  62982.000000  0    1830741.611   1120580.599  -6552535.284
10 0 59578  63102.000000  0    2692121.169   1174243.821  -6238162.267
10 0 59578  63222.000000  0    3507465.242   1192880.082  -5814878.724
10 0 59578  63342.000000  0    4261981.109   1177084.209  -5289990.458
10 0 59578  63462.000000  0    4941915.800   1128295.132  -4672579.626
10 0 59578  63582.000000  0    5534812.222   1048753.491  -3973358.730
10 0 59578  63702.000000  0    6029745.330    941440.941  -3204494.203
10 0 59578  63822.000000  0    6417534.004    810002.163  -2379402.455
10 0 59578  63942.000000  0    6690924.532    658651.566  -1512519.926
10 0 59578  64062.000000  0    6844739.035    492065.813   -619049.452
10 0 59578  64182.000000  0    6875983.251    315264.961    285310.483
10 0 59578  64302.000000  0    6783912.454    133485.965   1184647.551
10 0 59578  64422.000000  0    6570053.159    -47950.138   2063124.050
10 0 59578  64542.000000  0    6238178.066   -223772.424   2905265.660
10 0 59578  64662.000000  0    5794234.813   -388893.068   3696242.329
10 0 59578  64782.000000  0    5246231.374   -538534.544   4422134.542
10 0 59578  64902.000000  0    4604083.686   -668348.618   5070181.871
10 0 59578  65022.000000  0    3879424.839   -774524.891   5629008.013
10 0 59578  65142.000000  0    3085384.109   -853884.292   6088816.771
10 0 59578  65262.000000  0    2236341.279   -903957.627   6441558.946
10 0 59578  65382.000000  0    1347661.151   -923047.097   6681067.596
99
